JUPITER 3 (ECHOSTAR 24) 
1 57479U 23108A   26174.50986520  .00000000  00000+0  00000+0 0  9999
2 57479   0.0217   7.9584 0001194  82.7820 269.2732  1.00269415 10717
GALAXY 37 (G-37)        
1 57493U 23112A   26176.64236492  .00000058  00000+0  00000+0 0  9996
2 57493   0.0129  39.7813 0002204  51.1738 287.0745  1.00271487 10628
LUDI TANCE-4 01A        
1 57624U 23120A   26175.53240344 -.00000158  00000+0  00000+0 0  9991
2 57624  15.1002 193.7787 0001367  22.2566 337.9252  1.00268303 10620
TJS-10                  
1 58204U 23169A   26176.70892756 -.00000241  00000+0  00000+0 0  9992
2 58204   2.5665  80.3985 0003897 103.7628  77.3463  1.00272103  9625
ZHONGXING-6E            
1 58253U 23172A   26176.40528241 -.00000351  00000+0  00000+0 0  9994
2 58253   0.0381 262.0890 0003114 187.2615  85.5627  1.00268063  9742
YAOGAN-41               
1 58582U 23197A   26176.62069883 -.00000350  00000+0  00000+0 0  9991
2 58582   3.1128 313.2780 0014402 192.9296 114.1006  1.00266702  9408
OVZON-3                 
1 58698U 24003A   26176.75062559  .00000062  00000+0  00000+0 0  9992
2 58698   0.0068  27.4778 0000165  54.0274 162.2908  1.00274244  7538
INSAT-3DS               
1 58990U 24033A   26176.68381347 -.00000145  00000+0  00000+0 0  9994
2 58990   0.0587 102.1091 0001440 341.2656 158.6947  1.00270803 47151
MERAH PUTIH 2           
1 58995U 24035A   26176.70253147 -.00000347  00000+0  00000+0 0  9994
2 58995   0.0167  45.3210 0001462  55.2775 179.0900  1.00270455  8672
TJS-11                  
1 59020U 24037A   26176.83244381 -.00000352  00000+0  00000+0 0  9996
2 59020   4.1876 327.1972 0003437 114.7948 244.3197  1.00272762  8663
HULIANWAN GAOGUI-01 (H*)
1 59069U 24040A   26175.98239164  .00000165  00000+0  00000+0 0  9992
2 59069   0.0677 331.6577 0002770  73.6634 255.0386  1.00270755  7405
EUTELSAT 36D            
1 59346U 24059A   26175.81914640  .00000000  00000+0  00000+0 0  9999
2 59346   0.0231  16.9806 0000556 119.4534 107.2726  1.00270360  8224
PAKSAT-MM1              
1 59915U 24104A   26176.53251992  .00000164  00000+0  00000+0 0  9997
2 59915   0.0388  91.2975 0002838 342.6532  69.5789  1.00270693  7615
ASTRA 1P (SES-24)       
1 60086U 24115A   26175.90625000  .00000129  00000+0  00000+0 0  9996
2 60086   0.0595 340.0652 0000828  24.8630 253.5862  1.00274964  7272
GOES 19                 
1 60133U 24119A   26176.51008703 -.00000238  00000+0  00000+0 0  9998
2 60133   0.0443 168.6712 0000479 333.6942 239.7212  1.00271645  7040
ZHONGXING-3A            
1 60179U 24122A   26176.16919925 -.00000304  00000+0  00000+0 0  9994
2 60179   0.0429 126.3697 0001382 353.1608 316.2695  1.00271409  7388
TURKSAT 6A              
1 60233U 24127A   26176.36016859  .00000156  00000+0  00000+0 0  9990
2 60233   0.0588 220.3166 0001925 272.6888 312.1748  1.00275873  7090
HULIANWAN GAOGUI-02 (H*)
1 60327U 24135A   26176.15044834 -.00000164  00000+0  00000+0 0  9994
2 60327   0.0431 357.3362 0007449  13.5264 109.6933  1.00271607  7587
ZHONGXING-4A            
1 60606U 24151A   26176.83357046 -.00000350  00000+0  00000+0 0  9996
2 60606   1.2919 270.7150 0000495 208.1187 213.4353  1.00269849  6847
HULIANWAN GAOGUI-03 (H*)
1 61503U 24181A   26176.36713690 -.00000231  00000+0  00000+0 0  9993
2 61503   0.0460 358.5440 0001415  93.2530 236.7381  1.00273676  6906
DSN-3 (KIRAMEKI-3)      
1 61733U 24198A   26176.83842382 -.00000240  00000+0  00000+0 0  9999
2 61733   0.0171 330.2878 0000932 145.6516 243.8918  1.00269711  6002
KOREASAT 6A             
1 61910U 24206A   26176.59280796  .00000000  00000+0  00000+0 0  9997
2 61910   0.0144   5.4472 0001065  76.9513 160.7668  1.00268920  5921
OPTUS-X (ADS-01)        
1 62006U 24212A   26176.82197531 -.00000133  00000+0  00000+0 0  9999
2 62006   0.0181 359.0504 0002235 129.9298 237.2675  1.00272086  5849
GSAT-N2 (GSAT-20)       
1 62028U 24214A   26176.82360376 -.00000009  00000+0  00000+0 0  9996
2 62028   0.0571 103.7012 0002202 341.2848 193.4015  1.00272063  5989
SXM-9                   
1 62259U 24234A   26174.36938516 -.00000200  00000+0  00000+0 0  9991
2 62259   0.0148 336.3648 0004895 341.8528   1.1406  1.00271796  5638
TJS-12                  
1 62374U 24246A   26175.78309433 -.00000223  00000+0  00000+0 0  9994
2 62374   0.6533 299.9327 0002109  91.7487 309.6330  1.00268446  5640
NUVIEW ALPHA            
1 62455U 24252B   26175.36783983 -.00000207  00000+0  00000+0 0  9993
2 62455   0.0534  34.2511 0001427  41.0245 246.5697  1.00270061  3898
AGILA                   
1 62456U 24252C   26175.41445057 -.00000174  00000+0  00000+0 0  9990
2 62456   0.0652 122.4429 0001526 345.1641 106.3124  1.00271371  5239
NUVIEW BRAVO            
1 62457U 24252D   26175.36783983 -.00000207  00000+0  00000+0 0  9995
2 62457   0.0745 147.1599 0002351 339.1991 195.4733  1.00272657  3863
THURAYA-4               
1 62483U 25001A   26176.17732737  .00000149  00000+0  00000+0 0  9992
2 62483   0.0269  69.4729 0000151 343.0662 328.9298  1.00274366  4251
SHIJIAN-25 (SJ-25)      
1 62485U 25002A   26176.42571132 -.00000344  00000+0  00000+0 0  9991
2 62485   5.1328  61.1186 0051294 174.7504 318.1709  1.00281333  5441
TJS-14                  
1 62804U 25017A   26176.81378462  .00000126  00000+0  00000+0 0  9993
2 62804   0.7627 296.2277 0001129 295.5704 353.5234  1.00268800  5357
